ONEWEB-0258             
1 48976U 21060K   25031.82840154 -.00000011  00000+0 -63168-4 0  9997
2 48976  87.9130 328.7050 0001861  78.8670 281.2670 13.16596007173624
ONEWEB-0259             
1 48977U 21060L   25031.74608049  .00000116  00000+0  27094-3 0  9995
2 48977  87.9128 328.7056 0002044  82.8864 277.2499 13.16595807173645
ONEWEB-0260             
1 48978U 21060M   25031.58535224  .00000147  00000+0  35094-3 0  9995
2 48978  87.9127 328.7673 0001228  80.6335 279.4934 13.16598024173600
ONEWEB-0261             
1 48979U 21060N   25031.55530549  .00000050  00000+0  96665-4 0  9993
2 48979  87.9129 328.7727 0001659  96.8481 263.2839 13.16595168173658
ONEWEB-0262             
1 48980U 21060P   25031.76350420  .00000030  00000+0  44915-4 0  9995
2 48980  87.9129 328.6890 0002088  82.2505 277.8863 13.16594285173649
ONEWEB-0263             
1 48981U 21060Q   25031.56716132  .00000120  00000+0  27928-3 0  9994
2 48981  87.9130 328.7513 0001932  91.9827 268.1525 13.16595729173581
ONEWEB-0264             
1 48982U 21060R   25031.75637612  .00000067  00000+0  14101-3 0  9990
2 48982  87.9131 328.7233 0001766  81.3939 278.7392 13.16594952173614
ONEWEB-0266             
1 48984U 21060T   25031.54973719  .00000050  00000+0  96594-4 0  9999
2 48984  87.9127 328.7360 0001938  77.0779 283.0568 13.16597281173574
